STARLINK-5632           
1 55400U 23014K   26068.41295824  .00000287  00000+0  31886-4 0  9997
2 55400  69.9997  65.1642 0003134 268.4427  91.6373 14.98333803172015
SATELIOT_4              
1 60537U 24149BX  26068.74229552  .00002907  00000+0  26256-3 0  9990
2 60537  97.6789 145.1106 0002390  45.2073 314.9342 14.96254023 85108
